ISS (UNITY)             
1 25575U 98069F   26137.03684517  .00005133  00000+0  10043-3 0  9991
2 25575  51.6321  94.3035 0007556  67.0843 293.0943 15.49238964566940
DLR-TUBSAT              
1 25757U 99029B   26137.22383124  .00000022  00000+0  17357-4 0  9999
2 25757  98.6694 131.7107 0015421  84.9594 275.3360 14.52418041428754
CXO                     
1 25867U 99040B   26137.63980620  .00000640  00000+0  00000+0 0  9991
2 25867  55.7295 117.4600 7892195 310.4750 359.8236  0.37807696 17216
ABS-6                   
1 25924U 99053A   26137.13086983 -.00000111  00000+0  00000+0 0  9997
2 25924   0.0234 114.6387 0003389 308.8981  17.4496  1.00271328 97521
NAVSTAR 46 (USA 145)    
1 25933U 99055A   26137.13910318 -.00000053  00000+0  00000+0 0  9992
2 25933  51.4929 296.8261 0106621 174.1682   9.3691  2.00563725194959
UFO 10 (USA 146)        
1 25967U 99063A   26135.07891949 -.00000179  00000+0  00000+0 0  9996
2 25967   9.8492  27.3862 0002873 359.9608 211.0366  1.00269132 97011
ORBCOMM FM32            
1 25982U 99065C   26136.79929188  .00000408  00000+0  18352-3 0  9999
2 25982  45.0163 321.8055 0005677 255.0203 105.0017 14.37084887382572
XMM-NEWTON              
1 25989U 99066A   26137.43369036  .00000070  00000+0  00000+0 0  9991
2 25989  64.6492 283.3759 4684206  65.4789   0.1649  0.50125832 22855
TERRA                   
1 25994U 99068A   26137.12496294  .00000242  00000+0  58291-4 0  9993
2 25994  97.9477 187.8994 0001800   7.1877  18.6387 14.61076219405075
ASIASTAR                
1 26107U 00016A   26136.74280990 -.00000328  00000+0  00000+0 0  9992
2 26107   9.0583  58.4863 0004740 359.6288 188.7799  1.00270830 95603
IMAGE                   
1 26113U 00017A   26131.51486742  .00000008  00000+0 -20584-1 0  9999
2 26113  94.2002 314.8870 7459903 291.9767   8.1989  1.68665748160880
USA 149 (DSP 20)        
1 26356U 00024A   26136.47728569  .00000097  00000+0  00000+0 0  9998
2 26356  13.1477  12.0787 0002102 307.7149 281.2717  1.00261417 32597
TDRS 8                  
1 26388U 00034A   26136.72891940 -.00000193  00000+0  00000+0 0  9994
2 26388  12.6356  31.5894 0005776 356.9882 193.1319  1.00273187 94861
ISS (ZVEZDA)            
1 26400U 00037A   26137.03684517  .00005133  00000+0  10043-3 0  9997
2 26400  51.6321  94.3035 0007556  67.0843 293.0943 15.49238964566982
NAVSTAR 48 (USA 151)    
1 26407U 00040A   26136.37777748  .00000045  00000+0  00000+0 0  9998
2 26407  54.8567 216.4258 0121397 302.3525  54.0583  2.00557366189307
CLUSTER II-FM7 (SAMBA)  
1 26410U 00041A   26136.90193215  .00003611  00000+0  00000+0 0  9995
2 26410 149.8252  45.4159 9017491 262.1600   0.5378  0.44878750 20167
CLUSTER II-FM8 (TANGO)  
1 26464U 00045B   26136.89704581  .00003719  00000+0  00000+0 0  9999
2 26464 150.0886  46.4719 9022759 263.0807   0.4723  0.44400393 20154
NSS-11                  
1 26554U 00059A   26137.13433652  .00000033  00000+0  00000+0 0  9996
2 26554   2.0472  81.7315 0002827 319.8257  57.6466  1.00271982 40983
USA 153                 
1 26575U 00065A   26136.60600389 -.00000320  00000+0  00000+0 0  9990
2 26575  11.5713  35.6821 0008182  79.7139 111.3015  1.00276700 32612
AMC-6                   
1 26580U 00067A   26137.18718409  .00000096  00000+0  00000+0 0  9994
2 26580   0.0918  78.7086 0003243 341.5998 106.9466  1.00272960 93582
NAVSTAR 49 (USA 154)    
1 26605U 00071A   26136.12951391  .00000017  00000+0  00000+0 0  9992
2 26605  55.6086  96.2198 0174362 266.5143 194.4435  2.00566951186870
ISS (DESTINY)           
1 26700U 01006B   26137.03684517  .00005133  00000+0  10043-3 0  9997
2 26700  51.6321  94.3035 0007556  67.0843 293.0943 15.49238964567021
ODIN                    
1 26702U 01007A   26136.94450696  .00098840  00000+0  93021-3 0  9992
2 26702  97.3908 176.0987 0003086 185.9446 174.1778 15.66789909384490
USA 157 (MILSTAR-2 2)   
1 26715U 01009A   26136.78469855  .00000112  00000+0  00000+0 0  9993
2 26715  11.5093  19.9594 0038354 179.2923 167.6584  1.00273640 32628
BSAT-2A                 
1 26720U 01011B   26135.89576234  .00000064  00000+0  00000+0 0  9999
2 26720  10.6667  47.7870 0002581 230.0769 320.4750  0.99176976 91657
OMNI-M1                 
1 26857U 01026A   26136.37865379 -.00000011  00000+0  00000+0 0  9994
2 26857  44.8421 252.5957 0015297  48.1988 311.9568  3.92401279204321
USA 159 (DSP 21)        
1 26880U 01033A   26136.84003234 -.00000005  00000+0  00000+0 0  9997
2 26880  12.7531  16.6545 0000722 131.6836  58.5251  0.99199059 32643
INTELSAT 902 (IS-902)   
1 26900U 01039A   26137.16087824 -.00000276  00000+0  00000+0 0  9999
2 26900   6.0409  72.1548 0004690 340.2216 190.3139  1.00271701 90387
PCSAT (NO-44)           
1 26931U 01043C   26136.93828738  .00000066  00000+0  55711-4 0  9999
2 26931  67.0509 325.0958 0006239 263.6964  96.3427 14.31943070285972
PROBA-1                 
1 26958U 01049B   26137.20362991  .00000838  00000+0  58333-4 0  9999
2 26958  97.9607 144.6566 0053681 226.4964 133.1795 15.07369965338956
TIMED                   
1 26998U 01055B   26136.89651138  .00000745  00000+0  71322-4 0  9998
2 26998  74.0670 298.0185 0000758 176.5326 183.5864 14.95210921326148
