OBJECT_NAME,OBJECT_ID,EPOCH,MEAN_MOTION,ECCENTRICITY,INCLINATION,RA_OF_ASC_NODE,ARG_OF_PERICENTER,MEAN_ANOMALY,EPHEMERIS_TYPE,CLASSIFICATION_TYPE,NORAD_CAT_ID,ELEMENT_SET_NO,REV_AT_EPOCH,BSTAR,MEAN_MOTION_DOT,MEAN_MOTION_DDOT
ISS (UNITY),1998-069F,2026-05-17T00:53:03.422688,15.49238964,.0007556,51.6321,94.3035,67.0843,293.0943,0,U,25575,999,56694,.10043E-3,.5133E-4,0
DLR-TUBSAT,1999-029B,2026-05-17T05:22:19.019136,14.52418041,.0015421,98.6694,131.7107,84.9594,275.3360,0,U,25757,999,42875,.17357E-4,.22E-6,0
CXO,1999-040B,2026-05-17T15:21:19.255680,0.37807696,.78921952,55.7295,117.4600,310.4750,359.8236,0,U,25867,999,1721,0,.64E-5,0
ABS-6,1999-053A,2026-05-17T03:08:27.153312,1.00271328,.0003389,0.0234,114.6387,308.8981,17.4496,0,U,25924,999,9752,0,-.111E-5,0
NAVSTAR 46 (USA 145),1999-055A,2026-05-17T03:20:18.514752,2.00563725,.0106621,51.4929,296.8261,174.1682,9.3691,0,U,25933,999,19495,0,-.53E-6,0
UFO 10 (USA 146),1999-063A,2026-05-15T01:53:38.643936,1.00269132,.00028736,9.8492,27.3862,359.9608,211.0366,0,U,25967,999,9701,0,-.179E-5,0
ORBCOMM FM32,1999-065C,2026-05-16T19:10:58.818432,14.37084887,.00056778,45.0163,321.8055,255.0203,105.0017,0,U,25982,999,38257,.18351646E-3,.408E-5,0
XMM-NEWTON,1999-066A,2026-05-17T10:24:30.847104,0.50125832,.46842069,64.6492,283.3759,65.4789,0.1649,0,U,25989,999,2285,0,.7E-6,0
TERRA,1999-068A,2026-05-17T02:59:56.798016,14.61076219,.00018,97.9477,187.8994,7.1877,18.6387,0,U,25994,999,40507,.58291E-4,.242E-5,0
ASIASTAR,2000-016A,2026-05-16T17:49:38.775360,1.00270830,.000474,9.0583,58.4863,359.6288,188.7799,0,U,26107,999,9560,0,-.328E-5,0
IMAGE,2000-017A,2026-05-11T12:21:24.545088,1.68665748,.74599038,94.2002,314.8870,291.9767,8.1989,0,U,26113,999,16088,-.20584314E-1,.8E-7,0
USA 149 (DSP 20),2000-024A,2026-05-16T11:27:17.483616,1.00261417,.00021025,13.1477,12.0787,307.7149,281.2717,0,U,26356,999,3259,0,.97E-6,0
TDRS 8,2000-034A,2026-05-16T17:29:38.636160,1.00273187,.00057763,12.6356,31.5894,356.9882,193.1319,0,U,26388,999,9486,0,-.193E-5,0
ISS (ZVEZDA),2000-037A,2026-05-17T00:53:03.422688,15.49238964,.0007556,51.6321,94.3035,67.0843,293.0943,0,U,26400,999,56698,.10043E-3,.5133E-4,0
NAVSTAR 48 (USA 151),2000-040A,2026-05-16T09:03:59.974272,2.00557366,.01213974,54.8567,216.4258,302.3525,54.0583,0,U,26407,999,18930,0,.45E-6,0
CLUSTER II-FM7 (SAMBA),2000-041A,2026-05-16T21:38:46.937760,0.44878750,.90174919,149.8252,45.4159,262.1600,0.5378,0,U,26410,999,2016,0,.3611E-4,0
CLUSTER II-FM8 (TANGO),2000-045B,2026-05-16T21:31:44.757984,0.44400393,.90227595,150.0886,46.4719,263.0807,0.4723,0,U,26464,999,2015,0,.3719E-4,0
NSS-11,2000-059A,2026-05-17T03:13:26.675328,1.00271982,.0002827,2.0472,81.7315,319.8257,57.6466,0,U,26554,999,4098,0,.33E-6,0
USA 153,2000-065A,2026-05-16T14:32:38.736096,1.00276700,.0008182,11.5713,35.6821,79.7139,111.3015,0,U,26575,999,3261,0,-.32E-5,0
AMC-6,2000-067A,2026-05-17T04:29:32.705376,1.00272960,.0003243,0.0918,78.7086,341.5998,106.9466,0,U,26580,999,9358,0,.96E-6,0
NAVSTAR 49 (USA 154),2000-071A,2026-05-16T03:06:30.001824,2.00566951,.01743621,55.6086,96.2198,266.5143,194.4435,0,U,26605,999,18687,0,.17E-6,0
ISS (DESTINY),2001-006B,2026-05-17T00:53:03.422688,15.49238964,.0007556,51.6321,94.3035,67.0843,293.0943,0,U,26700,999,56702,.10043E-3,.5133E-4,0
ODIN,2001-007A,2026-05-16T22:40:05.401344,15.66789909,.0003086,97.3908,176.0987,185.9446,174.1778,0,U,26702,999,38449,.93021E-3,.9884E-3,0
USA 157 (MILSTAR-2 2),2001-009A,2026-05-16T18:49:57.954720,1.00273640,.00383542,11.5093,19.9594,179.2923,167.6584,0,U,26715,999,3262,0,.112E-5,0
BSAT-2A,2001-011B,2026-05-15T21:29:53.866176,0.99176976,.00025813,10.6667,47.7870,230.0769,320.4750,0,U,26720,999,9165,0,.64E-6,0
OMNI-M1,2001-026A,2026-05-16T09:05:15.687456,3.92401279,.00152975,44.8421,252.5957,48.1988,311.9568,0,U,26857,999,20432,0,-.11E-6,0
USA 159 (DSP 21),2001-033A,2026-05-16T20:09:38.794176,0.99199059,.0000722,12.7531,16.6545,131.6836,58.5251,0,U,26880,999,3264,0,-.5E-7,0
INTELSAT 902 (IS-902),2001-039A,2026-05-17T03:51:39.879936,1.00271701,.000469,6.0409,72.1548,340.2216,190.3139,0,U,26900,999,9038,0,-.276E-5,0
PCSAT (NO-44),2001-043C,2026-05-16T22:31:08.029632,14.31943070,.0006239,67.0509,325.0958,263.6964,96.3427,0,U,26931,999,28597,.55711E-4,.66E-6,0
PROBA-1,2001-049B,2026-05-17T04:53:13.624224,15.07369965,.0053681,97.9607,144.6566,226.4964,133.1795,0,U,26958,999,33895,.58333E-4,.838E-5,0
TIMED,2001-055B,2026-05-16T21:30:58.583232,14.95210921,.0000758,74.0670,298.0185,176.5326,183.5864,0,U,26998,999,32614,.71322E-4,.745E-5,0
